[
    {
        "Altitude(m)": 707139.8339795478,
        "Argument of Periapsis(deg)": 0.0011390121186627068,
        "Eccentricity": 0.0,
        "Inclination(deg)": 45.0,
        "Latitude(deg)": 44.39871969712208,
        "Longitude(deg)": 53.05296475004271,
        "Mean Anomaly(deg)": 99.33512166474809,
        "RAAN(deg)": 49.99892480585417,
        "Satellite Name": "Constellation 1 226",
        "Satellite Number": 226,
        "Semi-Major Axis(m)": 7083131.272910544,
        "Time(s)": 19
    },
    {
        "Altitude(m)": 707137.6366321451,
        "Argument of Periapsis(deg)": 0.0011989601249081123,
        "Eccentricity": 0.0,
        "Inclination(deg)": 45.0,
        "Latitude(deg)": 44.388937648087904,
        "Longitude(deg)": 53.13252601179693,
        "Mean Anomaly(deg)": 99.39582280499798,
        "RAAN(deg)": 49.998868216688614,
        "Satellite Name": "Constellation 1 226",
        "Satellite Number": 226,
        "Semi-Major Axis(m)": 7083131.272910544,
        "Time(s)": 20
    },
    {
        "Altitude(m)": 707135.4256578458,
        "Argument of Periapsis(deg)": 0.001258908131153518,
        "Eccentricity": 0.0,
        "Inclination(deg)": 45.0,
        "Latitude(deg)": 44.37909433882916,
        "Longitude(deg)": 53.212059339411006,
        "Mean Anomaly(deg)": 99.45652394524788,
        "RAAN(deg)": 49.99881162752304,
        "Satellite Name": "Constellation 1 226",
        "Satellite Number": 226,
        "Semi-Major Axis(m)": 7083131.272910544,
        "Time(s)": 21
    },
    {
        "Altitude(m)": 707133.2010696708,
        "Argument of Periapsis(deg)": 0.0013188561373989236,
        "Eccentricity": 0.0,
        "Inclination(deg)": 45.0,
        "Latitude(deg)": 44.369189810511145,
        "Longitude(deg)": 53.29156440955773,
        "Mean Anomaly(deg)": 99.51722508549778,
        "RAAN(deg)": 49.99875503835747,
        "Satellite Name": "Constellation 1 226",
        "Satellite Number": 226,
        "Semi-Major Axis(m)": 7083131.272910544,
        "Time(s)": 22
    },
    {
        "Altitude(m)": 707130.9628807174,
        "Argument of Periapsis(deg)": 0.0013788041436443293,
        "Eccentricity": 0.0,
        "Inclination(deg)": 45.0,
        "Latitude(deg)": 44.35922410452079,
        "Longitude(deg)": 53.37104140365936,
        "Mean Anomaly(deg)": 99.57792622574767,
        "RAAN(deg)": 49.9986984491919,
        "Satellite Name": "Constellation 1 226",
        "Satellite Number": 226,
        "Semi-Major Axis(m)": 7083131.272910544,
        "Time(s)": 23
    },
    {
        "Altitude(m)": 707128.711104171,
        "Argument of Periapsis(deg)": 0.001438752149889735,
        "Eccentricity": 0.0,
        "Inclination(deg)": 45.0,
        "Latitude(deg)": 44.349197262474085,
        "Longitude(deg)": 53.450489999226534,
        "Mean Anomaly(deg)": 99.63862736599758,
        "RAAN(deg)": 49.998641860026325,
        "Satellite Name": "Constellation 1 226",
        "Satellite Number": 226,
        "Semi-Major Axis(m)": 7083131.272910544,
        "Time(s)": 24
    },
    {
        "Altitude(m)": 707126.4457532788,
        "Argument of Periapsis(deg)": 0.0014987001561351404,
        "Eccentricity": 0.0,
        "Inclination(deg)": 45.0,
        "Latitude(deg)": 44.339109326178374,
        "Longitude(deg)": 53.52991004256404,
        "Mean Anomaly(deg)": 99.69932850624745,
        "RAAN(deg)": 49.998585270860765,
        "Satellite Name": "Constellation 1 226",
        "Satellite Number": 226,
        "Semi-Major Axis(m)": 7083131.272910544,
        "Time(s)": 25
    },
    {
        "Altitude(m)": 707124.166841392,
        "Argument of Periapsis(deg)": 0.001558648162380546,
        "Eccentricity": 0.0,
        "Inclination(deg)": 45.0,
        "Latitude(deg)": 44.328960337687604,
        "Longitude(deg)": 53.609301380205864,
        "Mean Anomaly(deg)": 99.76002964649737,
        "RAAN(deg)": 49.99852868169519,
        "Satellite Name": "Constellation 1 226",
        "Satellite Number": 226,
        "Semi-Major Axis(m)": 7083131.272910544,
        "Time(s)": 26
    },
    {
        "Altitude(m)": 707121.8743819299,
        "Argument of Periapsis(deg)": 0.0016185961686259519,
        "Eccentricity": 0.0,
        "Inclination(deg)": 45.0,
        "Latitude(deg)": 44.31875033926438,
        "Longitude(deg)": 53.68866385922816,
        "Mean Anomaly(deg)": 99.82073078674726,
        "RAAN(deg)": 49.99847209252962,
        "Satellite Name": "Constellation 1 226",
        "Satellite Number": 226,
        "Semi-Major Axis(m)": 7083131.272910544,
        "Time(s)": 27
    },
    {
        "Altitude(m)": 707119.5683883973,
        "Argument of Periapsis(deg)": 0.0016785441748713573,
        "Eccentricity": 0.0,
        "Inclination(deg)": 45.0,
        "Latitude(deg)": 44.30847937338829,
        "Longitude(deg)": 53.76799732717431,
        "Mean Anomaly(deg)": 99.88143192699717,
        "RAAN(deg)": 49.99841550336406,
        "Satellite Name": "Constellation 1 226",
        "Satellite Number": 226,
        "Semi-Major Axis(m)": 7083131.272910544,
        "Time(s)": 28
    },
    {
        "Altitude(m)": 707117.2488743688,
        "Argument of Periapsis(deg)": 0.001738492181116763,
        "Eccentricity": 0.0,
        "Inclination(deg)": 45.0,
        "Latitude(deg)": 44.29814748275509,
        "Longitude(deg)": 53.847301632056194,
        "Mean Anomaly(deg)": 99.94213306724708,
        "RAAN(deg)": 49.998358914198484,
        "Satellite Name": "Constellation 1 226",
        "Satellite Number": 226,
        "Semi-Major Axis(m)": 7083131.272910544,
        "Time(s)": 29
    },
    {
        "Altitude(m)": 707114.9158535146,
        "Argument of Periapsis(deg)": 0.0017984401873621684,
        "Eccentricity": 0.0,
        "Inclination(deg)": 45.0,
        "Latitude(deg)": 44.28775471027584,
        "Longitude(deg)": 53.92657645425903,
        "Mean Anomaly(deg)": 100.002834207497,
        "RAAN(deg)": 49.99830232503292,
        "Satellite Name": "Constellation 1 226",
        "Satellite Number": 226,
        "Semi-Major Axis(m)": 7083131.272910544,
        "Time(s)": 30
    },
    {
        "Altitude(m)": 707112.5693395747,
        "Argument of Periapsis(deg)": 0.0018583881936075745,
        "Eccentricity": 0.0,
        "Inclination(deg)": 45.0,
        "Latitude(deg)": 44.277301099076794,
        "Longitude(deg)": 54.00582197893205,
        "Mean Anomaly(deg)": 100.06353534774686,
        "RAAN(deg)": 49.99824573586734,
        "Satellite Name": "Constellation 1 226",
        "Satellite Number": 226,
        "Semi-Major Axis(m)": 7083131.272910544,
        "Time(s)": 31
    },
    {
        "Altitude(m)": 707110.2093463752,
        "Argument of Periapsis(deg)": 0.0019183361998529795,
        "Eccentricity": 0.0,
        "Inclination(deg)": 45.0,
        "Latitude(deg)": 44.266786692497384,
        "Longitude(deg)": 54.085037887406955,
        "Mean Anomaly(deg)": 100.12423648799677,
        "RAAN(deg)": 49.99818914670178,
        "Satellite Name": "Constellation 1 226",
        "Satellite Number": 226,
        "Semi-Major Axis(m)": 7083131.272910544,
        "Time(s)": 32
    },
    {
        "Altitude(m)": 707107.8358878145,
        "Argument of Periapsis(deg)": 0.0019782842060983856,
        "Eccentricity": 0.0,
        "Inclination(deg)": 45.0,
        "Latitude(deg)": 44.25621153409031,
        "Longitude(deg)": 54.164224029588446,
        "Mean Anomaly(deg)": 100.18493762824666,
        "RAAN(deg)": 49.99813255753621,
        "Satellite Name": "Constellation 1 226",
        "Satellite Number": 226,
        "Semi-Major Axis(m)": 7083131.272910544,
        "Time(s)": 33
    },
    {
        "Altitude(m)": 707105.4489778746,
        "Argument of Periapsis(deg)": 0.0020382322123437906,
        "Eccentricity": 0.0,
        "Inclination(deg)": 45.0,
        "Latitude(deg)": 44.245575667620365,
        "Longitude(deg)": 54.24338025585908,
        "Mean Anomaly(deg)": 100.24563876849659,
        "RAAN(deg)": 49.998075968370635,
        "Satellite Name": "Constellation 1 226",
        "Satellite Number": 226,
        "Semi-Major Axis(m)": 7083131.272910544,
        "Time(s)": 34
    },
    {
        "Altitude(m)": 707103.0486306294,
        "Argument of Periapsis(deg)": 0.002098180218589197,
        "Eccentricity": 0.0,
        "Inclination(deg)": 45.0,
        "Latitude(deg)": 44.2348791370638,
        "Longitude(deg)": 54.322506417080255,
        "Mean Anomaly(deg)": 100.30633990874647,
        "RAAN(deg)": 49.99801937920507,
        "Satellite Name": "Constellation 1 226",
        "Satellite Number": 226,
        "Semi-Major Axis(m)": 7083131.272910544,
        "Time(s)": 35
    },
    {
        "Altitude(m)": 707100.6348602128,
        "Argument of Periapsis(deg)": 0.002158128224834602,
        "Eccentricity": 0.0,
        "Inclination(deg)": 45.0,
        "Latitude(deg)": 44.224121986607315,
        "Longitude(deg)": 54.40160236459511,
        "Mean Anomaly(deg)": 100.36704104899637,
        "RAAN(deg)": 49.997962790039495,
        "Satellite Name": "Constellation 1 226",
        "Satellite Number": 226,
        "Semi-Major Axis(m)": 7083131.272910544,
        "Time(s)": 36
    },
    {
        "Altitude(m)": 707098.2076808509,
        "Argument of Periapsis(deg)": 0.002218076231080008,
        "Eccentricity": 0.0,
        "Inclination(deg)": 45.0,
        "Latitude(deg)": 44.213304260647234,
        "Longitude(deg)": 54.480667782131825,
        "Mean Anomaly(deg)": 100.42774218924629,
        "RAAN(deg)": 49.99790620087392,
        "Satellite Name": "Constellation 1 226",
        "Satellite Number": 226,
        "Semi-Major Axis(m)": 7083131.272910544,
        "Time(s)": 37
    }
]